"{\n    \"CCSDS_OMM_VERS\": \"2.0\",\n    \"COMMENT\": \"GENERATED VIA SPACE-TRACK.ORG API\",\n    \"CREATION_DATE\": \"2025-08-31T11:35:43\",\n    \"ORIGINATOR\": \"18 SPCS\",\n    \"OBJECT_NAME\": \"BEIDOU 3M10\",\n    \"OBJECT_ID\": \"2018-062B\",\n    \"CENTER_NAME\": \"EARTH\",\n    \"REF_FRAME\": \"TEME\",\n    \"TIME_SYSTEM\": \"UTC\",\n    \"MEAN_ELEMENT_THEORY\": \"SGP4\",\n    \"EPOCH\": \"2025-08-31T00:20:54.243744\",\n    \"MEAN_MOTION\": \"1.8622991075\",\n    \"ECCENTRICITY\": \"0.00055655492\",\n    \"INCLINATION\": \"54.097048\",\n    \"RA_OF_ASC_NODE\": \"192.15933\",\n    \"ARG_OF_PERICENTER\": \"15.481679\",\n    \"MEAN_ANOMALY\": \"344.51699\",\n    \"EPHEMERIS_TYPE\": \"0\",\n    \"CLASSIFICATION_TYPE\": \"U\",\n    \"NORAD_CAT_ID\": \"43582\",\n    \"ELEMENT_SET_NO\": \"999\",\n    \"REV_AT_EPOCH\": \"4823\",\n    \"BSTAR\": \"0\",\n    \"MEAN_MOTION_DOT\": \"0.000000311839\",\n    \"MEAN_MOTION_DDOT\": \"0\",\n    \"TLE_LINE0\": \"0 BEIDOU 3M10\",\n    \"TLE_LINE1\": \"1 43582U 18062B   25243.01451671  .00000031  00000-0  00000-0 0  9994\",\n    \"TLE_LINE2\": \"2 43582  54.0970 192.1593 0005566  15.4817 344.5170  1.86229911 48237\",\n    \"SEMIMAJOR_AXIS\": \"27906.297\",\n    \"PERIOD\": \"773.238\",\n    \"APOAPSIS\": \"21543.694\",\n    \"PERIAPSIS\": \"21512.631\",\n    \"OBJECT_TYPE\": \"PAYLOAD\",\n    \"DECAYED\": \"0\"\n}"